STARLINK-1704_new
1 17625C 21012F   21326.13838321  .00005990  00000-0  40141-3 0  3263
2 17625  53.0551 273.1161 0002043  62.7792 247.9420 15.06388187    14
STARLINK-1704_old
1 27625C 21012F   21325.16648534  .00003447  00000-0  23089-3 0  3256
2 27625  53.0551 277.4789 0002100  62.6873  14.4453 15.06403736    11
